EARTHCARE               
1 59908U 24101A   24290.63700716  .00037424  00000+0  52046-3 0  9995
2 59908  96.9934  55.7569 0001332  99.5358 260.6049 15.56891431 21876
